ORBCOMM FM115 [+]       
1 41186U 15081H   23325.45958594  .00000732  00000+0  18633-3 0  9994
2 41186  46.9994 242.8059 0001235 301.3253  58.7512 14.60111294423861
ORBCOMM FM108 [+]       
1 41187U 15081J   23325.23254687  .00000936  00000+0  24804-3 0  9996
2 41187  47.0057 292.8179 0002439 220.4302 139.6402 14.56044234423091
ORBCOMM FM117 [+]       
1 41188U 15081K   23325.33558004  .00000960  00000+0  25356-3 0  9998
2 41188  47.0017 291.2849 0003181 229.4239 130.6369 14.56045027423159
ORBCOMM FM116 [+]       
1 41189U 15081L   23325.53101992  .00001142  00000+0  29436-3 0  9997
2 41189  47.0035  20.1725 0003043 292.0094  68.0467 14.56062726421992
